ONEWEB-0531             
1 54146U 22138AK  25122.93372478 -.00000005  00000+0 -45023-4 0  9995
2 54146  87.9300 356.1272 0002346 103.6466 256.4929 13.20771627126020
ONEWEB-0535             
1 54147U 22138AL  25122.75882384  .00000028  00000+0  36693-4 0  9994
2 54147  87.9253  26.5287 0002034  85.0020 275.1344 13.19725734122701
ONEWEB-0536             
1 54148U 22138AM  25122.92108911  .00000014  00000+0  33828-5 0  9994
2 54148  87.9299 356.1759 0002319 109.5210 250.6174 13.20773302125143
ONEWEB-0527             
1 54642U 22166A   25122.82115828  .00000029  00000+0  39294-4 0  9996
2 54642  87.9255 325.8393 0001753  92.2323 267.9012 13.21827429117329
ONEWEB-0528             
1 54643U 22166B   25122.82748002  .00000050  00000+0  89909-4 0  9995
2 54643  87.9260 325.8361 0001672  86.3913 273.7412 13.21827713117336
ONEWEB-0539             
1 54644U 22166C   25122.93947779  .00002240  00000+0  53911-2 0  9995
2 54644  87.9240 325.8026 0001820  80.8658 279.2681 13.21813213117343
ONEWEB-0540             
1 54645U 22166D   25122.79450122 -.00000013  00000+0 -64009-4 0  9991
2 54645  87.9254 325.8542 0001906  81.8907 278.2443 13.21824375117318
ONEWEB-0542             
1 54646U 22166E   25122.79751585  .00000021  00000+0  19117-4 0  9996
2 54646  87.9240 325.8290 0002110  81.0834 279.0539 13.21826862117322
